H1 CPF 01  gfz 2022 03 28 00  5871 tandemx   
H2 1003001  6202 36605    2022 03 28 00 59 42 2022 04 02 00 00 42   120 1 1  0 0 0
H9
10 0 59670  22302.000000  0    4941553.281    403384.953   4772754.741
10 0 59670  22422.000000  0    5533967.190    238750.608   4086248.816
10 0 59670  22542.000000  0    6026645.364     60446.821   3327806.162
10 0 59670  22662.000000  0    6410757.639   -126586.964   2510766.651
10 0 59670  22782.000000  0    6679472.155   -317120.296   1649512.764
10 0 59670  22902.000000  0    6828085.172   -505761.476    759212.868
10 0 59670  23022.000000  0    6854109.833   -687090.913   -144452.722
10 0 59670  23142.000000  0    6757320.160   -855796.906  -1045577.376
10 0 59670  23262.000000  0    6539748.040  -1006809.635  -1928317.075
10 0 59670  23382.000000  0    6205635.226  -1135429.578  -2777176.930
10 0 59670  23502.000000  0    5761341.349  -1237447.421  -3577288.277
10 0 59670  23622.000000  0    5215211.471  -1309252.239  -4314671.122
10 0 59670  23742.000000  0    4577407.081  -1347925.127  -4976476.423
10 0 59670  23862.000000  0    3859706.014  -1351317.114  -5551204.683
10 0 59670  23982.000000  0    3075275.048  -1318110.171  -6028897.474
10 0 59670  24102.000000  0    2238421.804  -1247859.173  -6401298.764
10 0 59670  24222.000000  0    1364331.481  -1141013.935  -6661986.601
10 0 59670  24342.000000  0     468792.098   -998922.857  -6806473.109
10 0 59670  24462.000000  0    -432086.607   -823817.564  -6832273.498
10 0 59670  24582.000000  0   -1322156.403   -618778.371  -6738943.658
10 0 59670  24702.000000  0   -2185513.423   -387681.287  -6528087.359
10 0 59670  24822.000000  0   -3006775.880   -135127.021  -6203330.506
10 0 59670  24942.000000  0   -3771351.840    133646.441  -5770265.725
10 0 59670  25062.000000  0   -4465697.388    412867.372  -5236367.032
10 0 59670  25182.000000  0   -5077558.462    696347.594  -4610871.766
10 0 59670  25302.000000  0   -5596193.665    977612.357  -3904633.518
10 0 59670  25422.000000  0   -6012573.114   1250041.405  -3129943.515
10 0 59670  25542.000000  0   -6319547.340   1507016.935  -2300323.569
10 0 59670  25662.000000  0   -6511982.781   1742075.167  -1430293.592
10 0 59670  25782.000000  0   -6586860.247   1949058.905   -535116.918
10 0 59670  25902.000000  0   -6543331.762   2122266.095    369472.865
10 0 59670  26022.000000  0   -6382733.229   2256590.636   1267555.762
10 0 59670  26142.000000  0   -6108553.637   2347652.913   2143313.919
10 0 59670  26262.000000  0   -5726360.308   2391915.799   2981319.551
10 0 59670  26382.000000  0   -5243682.561   2386782.428   3766814.932
10 0 59670  26502.000000  0   -4669856.197   2330673.248   4485978.367
10 0 59670  26622.000000  0   -4015834.200   2223081.445   5126169.357
10 0 59670  26742.000000  0   -3293969.630   2064605.538   5676150.028
10 0 59670  26862.000000  0   -2517774.700   1856959.085   6126280.432
10 0 59670  26982.000000  0   -1701660.087   1602956.185   6468683.112
10 0 59670  27102.000000  0    -860661.938   1306473.426   6697374.525
10 0 59670  27222.000000  0     -10162.757    972389.842   6808362.246
10 0 59670  27342.000000  0     834389.380    606505.863   6799709.968
10 0 59670  27462.000000  0    1657760.382    215442.596   6671568.991
10 0 59670  27582.000000  0    2445203.660   -193477.216   6426176.020
10 0 59670  27702.000000  0    3182724.119   -612365.574   6067817.810
10 0 59670  27822.000000  0    3857329.184  -1032919.921   5602761.031
10 0 59670  27942.000000  0    4457261.648  -1446586.533   5039148.138
10 0 59670  28062.000000  0    4972209.765  -1844733.551   4386860.670
10 0 59670  28182.000000  0    5393492.653  -2218829.705   3657351.503
10 0 59670  28302.000000  0    5714215.958  -2560626.211   2863445.851
10 0 59670  28422.000000  0    5929391.884  -2862337.103   2019114.704
10 0 59670  28542.000000  0    6036022.483  -3116813.201   1139226.548
10 0 59670  28662.000000  0    6033144.630  -3317706.613    239279.504
10 0 59670  28782.000000  0    5921832.400  -3459619.721   -664879.731
10 0 59670  28902.000000  0    5705159.362  -3538236.136  -1557344.397
10 0 59670  29022.000000  0    5388118.429  -3550428.380  -2422436.431
10 0 59670  29142.000000  0    4977505.132  -3494341.663  -3244987.726
10 0 59670  29262.000000  0    4481766.363  -3369451.319  -4010609.944
10 0 59670  29382.000000  0    3910818.887  -3176593.087  -4705946.148
10 0 59670  29502.000000  0    3275842.420  -2917964.993  -5318900.255
10 0 59670  29622.000000  0    2589053.691  -2597101.868  -5838838.952
10 0 59670  29742.000000  0    1863468.187  -2218825.548  -6256765.537
10 0 59670  29862.000000  0    1112652.356  -1789170.228  -6565466.263
10 0 59670  29982.000000  0     350470.022  -1315283.096  -6759624.189
10 0 59670  30102.000000  0    -409170.118   -805305.129  -6835900.439
10 0 59670  30222.000000  0   -1152562.480   -268233.244  -6792984.534
10 0 59670  30342.000000  0   -1866446.042    286234.745  -6631614.349
10 0 59670  30462.000000  0   -2538235.338    847870.724  -6354564.009
10 0 59670  30582.000000  0   -3156237.296   1406099.758  -5966601.522
10 0 59670  30702.000000  0   -3709852.500   1950194.279  -5474416.344
10 0 59670  30822.000000  0   -4189759.351   2469476.808  -4886516.152
10 0 59670  30942.000000  0   -4588076.162   2953528.307  -4213090.608
10 0 59670  31062.000000  0   -4898496.888   3392396.702  -3465844.581
10 0 59670  31182.000000  0   -5116399.193   3776802.646  -2657804.067
10 0 59670  31302.000000  0   -5238921.223   4098337.970  -1803093.973
10 0 59670  31422.000000  0   -5265004.895   4349650.972   -916692.946
10 0 59670  31542.000000  0   -5195404.151   4524614.510    -14168.170
10 0 59670  31662.000000  0   -5032656.456   4618472.381    888604.273
10 0 59670  31782.000000  0   -4781017.302   4627958.102   1775728.069
10 0 59670  31902.000000  0   -4446359.323   4551383.426   2631576.040
10 0 59670  32022.000000  0   -4036038.517   4388695.329   3441073.744
10 0 59670  32142.000000  0   -3558731.902   4141499.344   4189971.451
10 0 59670  32262.000000  0   -3024251.507   3813048.931   4865098.815
10 0 59670  32382.000000  0   -2443338.641   3408201.579   5454598.226
10 0 59670  32502.000000  0   -1827443.103   2933342.698   5948131.388
10 0 59670  32622.000000  0   -1188493.066   2396279.622   6337056.332
10 0 59670  32742.000000  0    -538661.028   1806107.759   6614571.637
10 0 59670  32862.000000  0     109867.656   1173053.623   6775828.841
10 0 59670  32982.000000  0     745123.317    508295.635   6818012.444
10 0 59670  33102.000000  0    1355572.060   -176233.169   6740385.336
10 0 59670  33222.000000  0    1930324.164   -868058.553   6544301.631
10 0 59670  33342.000000  0    2459328.022  -1554391.998   6233184.745
10 0 59670  33462.000000  0    2933547.093  -2222366.434   5812472.373
10 0 59670  33582.000000  0    3345117.158  -2859278.560   5289526.694
10 0 59670  33702.000000  0    3687480.049  -3452832.363   4673511.460
10 0 59670  33822.000000  0    3955492.411  -3991380.146   3975236.806
10 0 59670  33942.000000  0    4145506.841  -4464156.038   3206972.803
10 0 59670  34062.000000  0    4255422.980  -4861496.765   2382234.862
10 0 59670  34182.000000  0    4284707.828  -5175044.176   1515543.663
10 0 59670  34302.000000  0    4234383.614  -5397924.054    622164.269
10 0 59670  34422.000000  0    4106983.185  -5524896.157   -282169.883
10 0 59670  34542.000000  0    3906475.910  -5552473.203  -1181541.618
10 0 59670  34662.000000  0    3638163.371  -5479004.860  -2060139.985
10 0 59670  34782.000000  0    3308548.631  -5304723.302  -2902545.357
10 0 59670  34902.000000  0    2925183.536  -5031751.283  -3694005.701
10 0 59670  35022.000000  0    2496496.423  -4664072.011  -4420697.007
10 0 59670  35142.000000  0    2031605.808  -4207462.736  -5069962.627
10 0 59670  35262.000000  0    1540126.068  -3669393.792  -5630527.154
10 0 59670  35382.000000  0    1031969.572  -3058897.887  -6092682.450
10 0 59670  35502.000000  0     517148.056  -2386412.769  -6448445.185
10 0 59670  35622.000000  0       5577.541  -1663598.926  -6691683.806
10 0 59670  35742.000000  0    -493108.597   -903136.296  -6818213.599
10 0 59670  35862.000000  0    -969735.733   -118503.981  -6825860.646
10 0 59670  35982.000000  0   -1415752.472    676253.614  -6714494.282
10 0 59670  36102.000000  0   -1823380.526   1466771.399  -6486028.734
10 0 59670  36222.000000  0   -2185747.047   2238616.706  -6144393.674
10 0 59670  36342.000000  0   -2496999.524   2977546.819  -5695475.120
10 0 59670  36462.000000  0   -2752400.876   3669769.245  -5147024.535
10 0 59670  36582.000000  0   -2948403.550   4302199.588  -4508537.087
10 0 59670  36702.000000  0   -3082701.049   4862712.832  -3791097.586
10 0 59670  36822.000000  0   -3154254.090   5340381.013  -3007196.001
10 0 59670  36942.000000  0   -3163291.693   5725692.979  -2170517.721
10 0 59670  37062.000000  0   -3111287.735   6010753.845  -1295708.522
10 0 59670  37182.000000  0   -3000910.233   6189455.453   -398116.443
10 0 59670  37302.000000  0   -2835946.985   6257612.775    506480.402
10 0 59670  37422.000000  0   -2621209.113   6213066.515   1402159.150
10 0 59670  37542.000000  0   -2362410.027   6055742.106   2273144.248
10 0 59670  37662.000000  0   -2066026.126   5787664.566   3104094.422
10 0 59670  37782.000000  0   -1739144.134   5412931.730   3880379.546
10 0 59670  37902.000000  0   -1389298.532   4937646.737   4588342.973
10 0 59670  38022.000000  0   -1024302.309   4369810.849   5215544.508
10 0 59670  38142.000000  0    -652074.531   3719179.507   5750977.906
10 0 59670  38262.000000  0    -280471.652   2997086.382   6185260.595
10 0 59670  38382.000000  0      82876.074   2216237.965   6510792.665
10 0 59670  38502.000000  0     430719.069   1390485.400   6721883.754
10 0 59670  38622.000000  0     756331.591    534575.230   6814847.082
10 0 59670  38742.000000  0    1053640.305   -336114.313   6788058.770
99
